[{"OBJECT_NAME":"STARLINK-5903","OBJECT_ID":"2023-042L","EPOCH":"2026-03-09T08:57:30.921984","MEAN_MOTION":15.0254056,"ECCENTRICITY":0.00012431,"INCLINATION":43.0031,"RA_OF_ASC_NODE":57.7557,"ARG_OF_PERICENTER":268.6847,"MEAN_ANOMALY":91.3853,"EPHEMERIS_TYPE":0,"CLASSIFICATION_TYPE":"U","NORAD_CAT_ID":55996,"ELEMENT_SET_NO":999,"REV_AT_EPOCH":16286,"BSTAR":-7.1438872e-5,"MEAN_MOTION_DOT":-1.169e-5,"MEAN_MOTION_DDOT":0},{"OBJECT_NAME":"CZ-6A DEB","OBJECT_ID":"2022-151SL","EPOCH":"2026-03-09T10:13:37.626816","MEAN_MOTION":15.13067162,"ECCENTRICITY":0.00442991,"INCLINATION":99.1095,"RA_OF_ASC_NODE":231.9477,"ARG_OF_PERICENTER":182.6933,"MEAN_ANOMALY":177.4061,"EPHEMERIS_TYPE":0,"CLASSIFICATION_TYPE":"U","NORAD_CAT_ID":54947,"ELEMENT_SET_NO":999,"REV_AT_EPOCH":17723,"BSTAR":0.0054047259,"MEAN_MOTION_DOT":0.00099065,"MEAN_MOTION_DDOT":0}]
